SITRO-TD-3              
1 67270U 25313Y   26024.92927802  .00016147  00000+0  73908-3 0  9997
2 67270  97.4096 101.9270 0016236 143.3736 216.8613 15.20469475  4165
2025-313Z               
1 67271U 25313Z   26024.86562881  .00007921  00000+0  36778-3 0  9997
2 67271  97.4091 101.8493 0016412 139.7882 220.4571 15.20161951  4155
2025-313AA              
1 67272U 25313AA  26024.66318619  .00016956  00000+0  77114-3 0  9991
2 67272  97.4095 101.6607 0015946 144.5705 215.6594 15.20684882  4125
2025-313AB              
1 67273U 25313AB  26024.86571402  .00005742  00000+0  26814-3 0  9997
2 67273  97.4110 101.8546 0015390 147.8933 212.3243 15.20105116  4156
2025-313AC              
1 67274U 25313AC  26024.92904594  .00011847  00000+0  54485-3 0  9995
2 67274  97.4085 101.9225 0016091 142.7483 217.4872 15.20379288  4164
2025-313AD              
1 67275U 25313AD  26024.92799703  .00011968  00000+0  54945-3 0  9995
2 67275  97.4059 101.9151 0015247 145.5007 214.7222 15.20450762  4165
2025-313AE              
1 67276U 25313AE  26024.92798089  .00011629  00000+0  53408-3 0  9999
2 67276  97.4064 101.9163 0015225 145.5288 214.6938 15.20444893  4163
2025-313AF              
1 67277U 25313AF  26024.92847226  .00010922  00000+0  50261-3 0  9997
2 67277  97.4066 101.9167 0015218 145.4038 214.8191 15.20393101  4162
2025-313AG              
1 67278U 25313AG  26024.92812928  .00011108  00000+0  51031-3 0  9992
2 67278  97.4069 101.9181 0015042 145.5708 214.6505 15.20448623  4170
GALAPAGOS-UTE-SWSU      
1 67279U 25313AH  26024.92701758  .00012550  00000+0  57476-3 0  9992
2 67279  97.4078 101.9233 0015698 142.4203 217.8132 15.20515803  4167
2025-313AJ              
1 67280U 25313AJ  26024.72398428  .00008486  00000+0  38747-3 0  9991
2 67280  97.4150 101.7492 0014649 140.0364 220.1953 15.20744953  4137
2025-313AK              
1 67281U 25313AK  26024.91974447  .00009299  00000+0  42322-3 0  9991
2 67281  97.4033 101.9146 0013378 138.4133 221.8123 15.20842412  4168
