CCSDS_OMM_VERS = 2.0
CREATION_DATE  = 
ORIGINATOR     = 

OBJECT_NAME    = SITRO-TD-3
OBJECT_ID      = 2025-313Y
CENTER_NAME    = EARTH
REF_FRAME      = TEME
TIME_SYSTEM    = UTC
MEAN_ELEMENT_THEORY = SGP/SGP4

EPOCH          = 2026-01-24T22:18:09.620928
MEAN_MOTION    = 15.20469475
ECCENTRICITY   = .00162365
INCLINATION    = 97.4096
RA_OF_ASC_NODE = 101.9270
ARG_OF_PERICENTER = 143.3736
MEAN_ANOMALY   = 216.8613

EPHEMERIS_TYPE = 0
CLASSIFICATION_TYPE = U
NORAD_CAT_ID   = 67270
ELEMENT_SET_NO = 999
REV_AT_EPOCH   = 416
BSTAR          = .73907798E-3
MEAN_MOTION_DOT = .16147E-3
MEAN_MOTION_DDOT = 0

CCSDS_OMM_VERS = 2.0
CREATION_DATE  = 
ORIGINATOR     = 

OBJECT_NAME    = 2025-313Z
OBJECT_ID      = 2025-313Z
CENTER_NAME    = EARTH
REF_FRAME      = TEME
TIME_SYSTEM    = UTC
MEAN_ELEMENT_THEORY = SGP/SGP4

EPOCH          = 2026-01-24T20:46:30.329184
MEAN_MOTION    = 15.20161951
ECCENTRICITY   = .00164124
INCLINATION    = 97.4091
RA_OF_ASC_NODE = 101.8493
ARG_OF_PERICENTER = 139.7882
MEAN_ANOMALY   = 220.4571

EPHEMERIS_TYPE = 0
CLASSIFICATION_TYPE = U
NORAD_CAT_ID   = 67271
ELEMENT_SET_NO = 999
REV_AT_EPOCH   = 415
BSTAR          = .36778336E-3
MEAN_MOTION_DOT = .7921E-4
MEAN_MOTION_DDOT = 0

CCSDS_OMM_VERS = 2.0
CREATION_DATE  = 
ORIGINATOR     = 

OBJECT_NAME    = 2025-313AA
OBJECT_ID      = 2025-313AA
CENTER_NAME    = EARTH
REF_FRAME      = TEME
TIME_SYSTEM    = UTC
MEAN_ELEMENT_THEORY = SGP/SGP4

EPOCH          = 2026-01-24T15:54:59.286816
MEAN_MOTION    = 15.20684882
ECCENTRICITY   = .00159466
INCLINATION    = 97.4095
RA_OF_ASC_NODE = 101.6607
ARG_OF_PERICENTER = 144.5705
MEAN_ANOMALY   = 215.6594

EPHEMERIS_TYPE = 0
CLASSIFICATION_TYPE = U
NORAD_CAT_ID   = 67272
ELEMENT_SET_NO = 999
REV_AT_EPOCH   = 412
BSTAR          = .77114428E-3
MEAN_MOTION_DOT = .16956E-3
MEAN_MOTION_DDOT = 0

CCSDS_OMM_VERS = 2.0
CREATION_DATE  = 
ORIGINATOR     = 

OBJECT_NAME    = 2025-313AB
OBJECT_ID      = 2025-313AB
CENTER_NAME    = EARTH
REF_FRAME      = TEME
TIME_SYSTEM    = UTC
MEAN_ELEMENT_THEORY = SGP/SGP4

EPOCH          = 2026-01-24T20:46:37.691328
MEAN_MOTION    = 15.20105116
ECCENTRICITY   = .00153901
INCLINATION    = 97.4110
RA_OF_ASC_NODE = 101.8546
ARG_OF_PERICENTER = 147.8933
MEAN_ANOMALY   = 212.3243

EPHEMERIS_TYPE = 0
CLASSIFICATION_TYPE = U
NORAD_CAT_ID   = 67273
ELEMENT_SET_NO = 999
REV_AT_EPOCH   = 415
BSTAR          = .26813536E-3
MEAN_MOTION_DOT = .5742E-4
MEAN_MOTION_DDOT = 0

CCSDS_OMM_VERS = 2.0
CREATION_DATE  = 
ORIGINATOR     = 

OBJECT_NAME    = 2025-313AC
OBJECT_ID      = 2025-313AC
CENTER_NAME    = EARTH
REF_FRAME      = TEME
TIME_SYSTEM    = UTC
MEAN_ELEMENT_THEORY = SGP/SGP4

EPOCH          = 2026-01-24T22:17:49.569216
MEAN_MOTION    = 15.20379288
ECCENTRICITY   = .00160915
INCLINATION    = 97.4085
RA_OF_ASC_NODE = 101.9225
ARG_OF_PERICENTER = 142.7483
MEAN_ANOMALY   = 217.4872

EPHEMERIS_TYPE = 0
CLASSIFICATION_TYPE = U
NORAD_CAT_ID   = 67274
ELEMENT_SET_NO = 999
REV_AT_EPOCH   = 416
BSTAR          = .54485197E-3
MEAN_MOTION_DOT = .11847E-3
MEAN_MOTION_DDOT = 0

CCSDS_OMM_VERS = 2.0
CREATION_DATE  = 
ORIGINATOR     = 

OBJECT_NAME    = 2025-313AD
OBJECT_ID      = 2025-313AD
CENTER_NAME    = EARTH
REF_FRAME      = TEME
TIME_SYSTEM    = UTC
MEAN_ELEMENT_THEORY = SGP/SGP4

EPOCH          = 2026-01-24T22:16:18.943392
MEAN_MOTION    = 15.20450762
ECCENTRICITY   = .00152474
INCLINATION    = 97.4059
RA_OF_ASC_NODE = 101.9151
ARG_OF_PERICENTER = 145.5007
MEAN_ANOMALY   = 214.7222

EPHEMERIS_TYPE = 0
CLASSIFICATION_TYPE = U
NORAD_CAT_ID   = 67275
ELEMENT_SET_NO = 999
REV_AT_EPOCH   = 416
BSTAR          = .54945109E-3
MEAN_MOTION_DOT = .11968E-3
MEAN_MOTION_DDOT = 0

CCSDS_OMM_VERS = 2.0
CREATION_DATE  = 
ORIGINATOR     = 

OBJECT_NAME    = 2025-313AE
OBJECT_ID      = 2025-313AE
CENTER_NAME    = EARTH
REF_FRAME      = TEME
TIME_SYSTEM    = UTC
MEAN_ELEMENT_THEORY = SGP/SGP4

EPOCH          = 2026-01-24T22:16:17.548896
MEAN_MOTION    = 15.20444893
ECCENTRICITY   = .00152253
INCLINATION    = 97.4064
RA_OF_ASC_NODE = 101.9163
ARG_OF_PERICENTER = 145.5288
MEAN_ANOMALY   = 214.6938

EPHEMERIS_TYPE = 0
CLASSIFICATION_TYPE = U
NORAD_CAT_ID   = 67276
ELEMENT_SET_NO = 999
REV_AT_EPOCH   = 416
BSTAR          = .53407505E-3
MEAN_MOTION_DOT = .11629E-3
MEAN_MOTION_DDOT = 0

CCSDS_OMM_VERS = 2.0
CREATION_DATE  = 
ORIGINATOR     = 

OBJECT_NAME    = 2025-313AF
OBJECT_ID      = 2025-313AF
CENTER_NAME    = EARTH
REF_FRAME      = TEME
TIME_SYSTEM    = UTC
MEAN_ELEMENT_THEORY = SGP/SGP4

EPOCH          = 2026-01-24T22:17:00.003264
MEAN_MOTION    = 15.20393101
ECCENTRICITY   = .00152181
INCLINATION    = 97.4066
RA_OF_ASC_NODE = 101.9167
ARG_OF_PERICENTER = 145.4038
MEAN_ANOMALY   = 214.8191

EPHEMERIS_TYPE = 0
CLASSIFICATION_TYPE = U
NORAD_CAT_ID   = 67277
ELEMENT_SET_NO = 999
REV_AT_EPOCH   = 416
BSTAR          = .50260956E-3
MEAN_MOTION_DOT = .10922E-3
MEAN_MOTION_DDOT = 0

CCSDS_OMM_VERS = 2.0
CREATION_DATE  = 
ORIGINATOR     = 

OBJECT_NAME    = 2025-313AG
OBJECT_ID      = 2025-313AG
CENTER_NAME    = EARTH
REF_FRAME      = TEME
TIME_SYSTEM    = UTC
MEAN_ELEMENT_THEORY = SGP/SGP4

EPOCH          = 2026-01-24T22:16:30.369792
MEAN_MOTION    = 15.20448623
ECCENTRICITY   = .00150429
INCLINATION    = 97.4069
RA_OF_ASC_NODE = 101.9181
ARG_OF_PERICENTER = 145.5708
MEAN_ANOMALY   = 214.6505

EPHEMERIS_TYPE = 0
CLASSIFICATION_TYPE = U
NORAD_CAT_ID   = 67278
ELEMENT_SET_NO = 999
REV_AT_EPOCH   = 417
BSTAR          = .51031251E-3
MEAN_MOTION_DOT = .11108E-3
MEAN_MOTION_DDOT = 0

CCSDS_OMM_VERS = 2.0
CREATION_DATE  = 
ORIGINATOR     = 

OBJECT_NAME    = GALAPAGOS-UTE-SWSU
OBJECT_ID      = 2025-313AH
CENTER_NAME    = EARTH
REF_FRAME      = TEME
TIME_SYSTEM    = UTC
MEAN_ELEMENT_THEORY = SGP/SGP4

EPOCH          = 2026-01-24T22:14:54.318912
MEAN_MOTION    = 15.20515803
ECCENTRICITY   = .0015698
INCLINATION    = 97.4078
RA_OF_ASC_NODE = 101.9233
ARG_OF_PERICENTER = 142.4203
MEAN_ANOMALY   = 217.8132

EPHEMERIS_TYPE = 0
CLASSIFICATION_TYPE = U
NORAD_CAT_ID   = 67279
ELEMENT_SET_NO = 999
REV_AT_EPOCH   = 416
BSTAR          = .57475612E-3
MEAN_MOTION_DOT = .1255E-3
MEAN_MOTION_DDOT = 0

CCSDS_OMM_VERS = 2.0
CREATION_DATE  = 
ORIGINATOR     = 

OBJECT_NAME    = 2025-313AJ
OBJECT_ID      = 2025-313AJ
CENTER_NAME    = EARTH
REF_FRAME      = TEME
TIME_SYSTEM    = UTC
MEAN_ELEMENT_THEORY = SGP/SGP4

EPOCH          = 2026-01-24T17:22:32.241792
MEAN_MOTION    = 15.20744953
ECCENTRICITY   = .00146499
INCLINATION    = 97.4150
RA_OF_ASC_NODE = 101.7492
ARG_OF_PERICENTER = 140.0364
MEAN_ANOMALY   = 220.1953

EPHEMERIS_TYPE = 0
CLASSIFICATION_TYPE = U
NORAD_CAT_ID   = 67280
ELEMENT_SET_NO = 999
REV_AT_EPOCH   = 413
BSTAR          = .38747321E-3
MEAN_MOTION_DOT = .8486E-4
MEAN_MOTION_DDOT = 0

CCSDS_OMM_VERS = 2.0
CREATION_DATE  = 
ORIGINATOR     = 

OBJECT_NAME    = 2025-313AK
OBJECT_ID      = 2025-313AK
CENTER_NAME    = EARTH
REF_FRAME      = TEME
TIME_SYSTEM    = UTC
MEAN_ELEMENT_THEORY = SGP/SGP4

EPOCH          = 2026-01-24T22:04:25.922208
MEAN_MOTION    = 15.20842412
ECCENTRICITY   = .0013378
INCLINATION    = 97.4033
RA_OF_ASC_NODE = 101.9146
ARG_OF_PERICENTER = 138.4133
MEAN_ANOMALY   = 221.8123

EPHEMERIS_TYPE = 0
CLASSIFICATION_TYPE = U
NORAD_CAT_ID   = 67281
ELEMENT_SET_NO = 999
REV_AT_EPOCH   = 416
BSTAR          = .42322466E-3
MEAN_MOTION_DOT = .9299E-4
MEAN_MOTION_DDOT = 0

